FENGYUN 1C DEB          
1 31736U 99025CEK 17345.92738520  .00000020  00000-0  34838-4 0  9993
2 31736  98.8761  11.5141 0011307 278.6867 200.1411 14.12723712227842
